SL-14 R/B               
1 16792U 86046B   26089.88933010  .00000650  00000+0  71921-4 0  9990
2 16792  82.4806  60.1459 0023721 154.4339 205.8056 14.85611639129556
SL-14 R/B               
1 16882U 86055B   26089.55785426  .00000581  00000+0  64124-4 0  9990
2 16882  82.5169 107.0542 0017320 262.5594 214.7936 14.85661488122461
AJISAI (EGS)            
1 16908U 86061A   26089.91151723 -.00000103  00000+0 -42385-4 0  9990
2 16908  50.0115  28.0897 0011337 341.6492  65.2404 12.44515634470643
SL-14 R/B               
1 17567U 87024B   26089.91500265  .00000653  00000+0  71513-4 0  9994
2 17567  82.5255  72.8082 0018002 185.5184 174.5837 14.86153148 91281
COSMOS 1833             
1 17589U 87027A   26089.81406588 -.00000285  00000+0 -12659-3 0  9991
2 17589  70.9170 281.6175 0023173 183.3172 176.7800 14.13046532 13302
SL-16 R/B               
1 17590U 87027B   26089.86762036  .00000125  00000+0  85813-4 0  9995
2 17590  71.0017 231.8638 0002871  90.2551 269.8902 14.17166151 18346
SL-14 R/B               
1 17912U 87038B   26089.78613988  .00000632  00000+0  70350-4 0  9990
2 17912  82.4978 276.9280 0020764  94.6551 265.7037 14.85388913 82362
COSMOS 1844             
1 17973U 87041A   26089.96817584  .00000408  00000+0  23646-3 0  9995
2 17973  70.9016 349.2957 0031186 346.7318  13.2980 14.14558433  6593
SL-14 R/B               
1 18153U 87055B   26089.75927407  .00000538  00000+0  59161-4 0  9990
2 18153  82.5004 329.1765 0019406 306.7019  53.2413 14.85650505 73061
COSMOS 1867             
1 18187U 87060A   26089.81888097 -.00000024  00000+0  28497-4 0  9990
2 18187  65.0097 247.5298 0014861 279.9032  80.0374 14.31506381 22966
SL-14 R/B               
1 18749U 88001B   26089.75609900  .00000607  00000+0  67279-4 0  9994
2 18749  82.5159 175.5530 0018499 164.2366 195.9430 14.85551175 45154
COSMOS 1933             
1 18958U 88020A   26089.88276944  .00006289  00000+0  30617-3 0  9996
2 18958  82.5121 229.9384 0005342 118.3655 241.8118 15.18186716 53447
