CCSDS_OMM_VERS = 2.0
CREATION_DATE  = 
ORIGINATOR     = 

OBJECT_NAME    = SL-14 R/B
OBJECT_ID      = 1986-046B
CENTER_NAME    = EARTH
REF_FRAME      = TEME
TIME_SYSTEM    = UTC
MEAN_ELEMENT_THEORY = SGP/SGP4

EPOCH          = 2026-03-30T21:20:38.120640
MEAN_MOTION    = 14.85611639
ECCENTRICITY   = .00237217
INCLINATION    = 82.4806
RA_OF_ASC_NODE = 60.1459
ARG_OF_PERICENTER = 154.4339
MEAN_ANOMALY   = 205.8056

EPHEMERIS_TYPE = 0
CLASSIFICATION_TYPE = U
NORAD_CAT_ID   = 16792
ELEMENT_SET_NO = 999
REV_AT_EPOCH   = 12955
BSTAR          = .71920805E-4
MEAN_MOTION_DOT = .65E-5
MEAN_MOTION_DDOT = 0

CCSDS_OMM_VERS = 2.0
CREATION_DATE  = 
ORIGINATOR     = 

OBJECT_NAME    = SL-14 R/B
OBJECT_ID      = 1986-055B
CENTER_NAME    = EARTH
REF_FRAME      = TEME
TIME_SYSTEM    = UTC
MEAN_ELEMENT_THEORY = SGP/SGP4

EPOCH          = 2026-03-30T13:23:18.608064
MEAN_MOTION    = 14.85661488
ECCENTRICITY   = .00173206
INCLINATION    = 82.5169
RA_OF_ASC_NODE = 107.0542
ARG_OF_PERICENTER = 262.5594
MEAN_ANOMALY   = 214.7936

EPHEMERIS_TYPE = 0
CLASSIFICATION_TYPE = U
NORAD_CAT_ID   = 16882
ELEMENT_SET_NO = 999
REV_AT_EPOCH   = 12246
BSTAR          = .64123971E-4
MEAN_MOTION_DOT = .581E-5
MEAN_MOTION_DDOT = 0

CCSDS_OMM_VERS = 2.0
CREATION_DATE  = 
ORIGINATOR     = 

OBJECT_NAME    = AJISAI (EGS)
OBJECT_ID      = 1986-061A
CENTER_NAME    = EARTH
REF_FRAME      = TEME
TIME_SYSTEM    = UTC
MEAN_ELEMENT_THEORY = SGP/SGP4

EPOCH          = 2026-03-30T21:52:35.088672
MEAN_MOTION    = 12.44515634
ECCENTRICITY   = .00113375
INCLINATION    = 50.0115
RA_OF_ASC_NODE = 28.0897
ARG_OF_PERICENTER = 341.6492
MEAN_ANOMALY   = 65.2404

EPHEMERIS_TYPE = 0
CLASSIFICATION_TYPE = U
NORAD_CAT_ID   = 16908
ELEMENT_SET_NO = 999
REV_AT_EPOCH   = 47064
BSTAR          = -.42384793E-4
MEAN_MOTION_DOT = -.103E-5
MEAN_MOTION_DDOT = 0

CCSDS_OMM_VERS = 2.0
CREATION_DATE  = 
ORIGINATOR     = 

OBJECT_NAME    = SL-14 R/B
OBJECT_ID      = 1987-024B
CENTER_NAME    = EARTH
REF_FRAME      = TEME
TIME_SYSTEM    = UTC
MEAN_ELEMENT_THEORY = SGP/SGP4

EPOCH          = 2026-03-30T21:57:36.228960
MEAN_MOTION    = 14.86153148
ECCENTRICITY   = .00180025
INCLINATION    = 82.5255
RA_OF_ASC_NODE = 72.8082
ARG_OF_PERICENTER = 185.5184
MEAN_ANOMALY   = 174.5837

EPHEMERIS_TYPE = 0
CLASSIFICATION_TYPE = U
NORAD_CAT_ID   = 17567
ELEMENT_SET_NO = 999
REV_AT_EPOCH   = 9128
BSTAR          = .71512994E-4
MEAN_MOTION_DOT = .653E-5
MEAN_MOTION_DDOT = 0

CCSDS_OMM_VERS = 2.0
CREATION_DATE  = 
ORIGINATOR     = 

OBJECT_NAME    = COSMOS 1833
OBJECT_ID      = 1987-027A
CENTER_NAME    = EARTH
REF_FRAME      = TEME
TIME_SYSTEM    = UTC
MEAN_ELEMENT_THEORY = SGP/SGP4

EPOCH          = 2026-03-30T19:32:15.292032
MEAN_MOTION    = 14.13046532
ECCENTRICITY   = .00231739
INCLINATION    = 70.9170
RA_OF_ASC_NODE = 281.6175
ARG_OF_PERICENTER = 183.3172
MEAN_ANOMALY   = 176.7800

EPHEMERIS_TYPE = 0
CLASSIFICATION_TYPE = U
NORAD_CAT_ID   = 17589
ELEMENT_SET_NO = 999
REV_AT_EPOCH   = 1330
BSTAR          = -.12659345E-3
MEAN_MOTION_DOT = -.285E-5
MEAN_MOTION_DDOT = 0

CCSDS_OMM_VERS = 2.0
CREATION_DATE  = 
ORIGINATOR     = 

OBJECT_NAME    = SL-16 R/B
OBJECT_ID      = 1987-027B
CENTER_NAME    = EARTH
REF_FRAME      = TEME
TIME_SYSTEM    = UTC
MEAN_ELEMENT_THEORY = SGP/SGP4

EPOCH          = 2026-03-30T20:49:22.399104
MEAN_MOTION    = 14.17166151
ECCENTRICITY   = .00028713
INCLINATION    = 71.0017
RA_OF_ASC_NODE = 231.8638
ARG_OF_PERICENTER = 90.2551
MEAN_ANOMALY   = 269.8902

EPHEMERIS_TYPE = 0
CLASSIFICATION_TYPE = U
NORAD_CAT_ID   = 17590
ELEMENT_SET_NO = 999
REV_AT_EPOCH   = 1834
BSTAR          = .85813197E-4
MEAN_MOTION_DOT = .125E-5
MEAN_MOTION_DDOT = 0

CCSDS_OMM_VERS = 2.0
CREATION_DATE  = 
ORIGINATOR     = 

OBJECT_NAME    = SL-14 R/B
OBJECT_ID      = 1987-038B
CENTER_NAME    = EARTH
REF_FRAME      = TEME
TIME_SYSTEM    = UTC
MEAN_ELEMENT_THEORY = SGP/SGP4

EPOCH          = 2026-03-30T18:52:02.485632
MEAN_MOTION    = 14.85388913
ECCENTRICITY   = .00207645
INCLINATION    = 82.4978
RA_OF_ASC_NODE = 276.9280
ARG_OF_PERICENTER = 94.6551
MEAN_ANOMALY   = 265.7037

EPHEMERIS_TYPE = 0
CLASSIFICATION_TYPE = U
NORAD_CAT_ID   = 17912
ELEMENT_SET_NO = 999
REV_AT_EPOCH   = 8236
BSTAR          = .70349789E-4
MEAN_MOTION_DOT = .632E-5
MEAN_MOTION_DDOT = 0

CCSDS_OMM_VERS = 2.0
CREATION_DATE  = 
ORIGINATOR     = 

OBJECT_NAME    = COSMOS 1844
OBJECT_ID      = 1987-041A
CENTER_NAME    = EARTH
REF_FRAME      = TEME
TIME_SYSTEM    = UTC
MEAN_ELEMENT_THEORY = SGP/SGP4

EPOCH          = 2026-03-30T23:14:10.392576
MEAN_MOTION    = 14.14558433
ECCENTRICITY   = .00311861
INCLINATION    = 70.9016
RA_OF_ASC_NODE = 349.2957
ARG_OF_PERICENTER = 346.7318
MEAN_ANOMALY   = 13.2980

EPHEMERIS_TYPE = 0
CLASSIFICATION_TYPE = U
NORAD_CAT_ID   = 17973
ELEMENT_SET_NO = 999
REV_AT_EPOCH   = 659
BSTAR          = .23646179E-3
MEAN_MOTION_DOT = .408E-5
MEAN_MOTION_DDOT = 0

CCSDS_OMM_VERS = 2.0
CREATION_DATE  = 
ORIGINATOR     = 

OBJECT_NAME    = SL-14 R/B
OBJECT_ID      = 1987-055B
CENTER_NAME    = EARTH
REF_FRAME      = TEME
TIME_SYSTEM    = UTC
MEAN_ELEMENT_THEORY = SGP/SGP4

EPOCH          = 2026-03-30T18:13:21.279648
MEAN_MOTION    = 14.85650505
ECCENTRICITY   = .00194061
INCLINATION    = 82.5004
RA_OF_ASC_NODE = 329.1765
ARG_OF_PERICENTER = 306.7019
MEAN_ANOMALY   = 53.2413

EPHEMERIS_TYPE = 0
CLASSIFICATION_TYPE = U
NORAD_CAT_ID   = 18153
ELEMENT_SET_NO = 999
REV_AT_EPOCH   = 7306
BSTAR          = .59161228E-4
MEAN_MOTION_DOT = .538E-5
MEAN_MOTION_DDOT = 0

CCSDS_OMM_VERS = 2.0
CREATION_DATE  = 
ORIGINATOR     = 

OBJECT_NAME    = COSMOS 1867
OBJECT_ID      = 1987-060A
CENTER_NAME    = EARTH
REF_FRAME      = TEME
TIME_SYSTEM    = UTC
MEAN_ELEMENT_THEORY = SGP/SGP4

EPOCH          = 2026-03-30T19:39:11.315808
MEAN_MOTION    = 14.31506381
ECCENTRICITY   = .00148619
INCLINATION    = 65.0097
RA_OF_ASC_NODE = 247.5298
ARG_OF_PERICENTER = 279.9032
MEAN_ANOMALY   = 80.0374

EPHEMERIS_TYPE = 0
CLASSIFICATION_TYPE = U
NORAD_CAT_ID   = 18187
ELEMENT_SET_NO = 999
REV_AT_EPOCH   = 2296
BSTAR          = .28496524E-4
MEAN_MOTION_DOT = -.24E-6
MEAN_MOTION_DDOT = 0

CCSDS_OMM_VERS = 2.0
CREATION_DATE  = 
ORIGINATOR     = 

OBJECT_NAME    = SL-14 R/B
OBJECT_ID      = 1988-001B
CENTER_NAME    = EARTH
REF_FRAME      = TEME
TIME_SYSTEM    = UTC
MEAN_ELEMENT_THEORY = SGP/SGP4

EPOCH          = 2026-03-30T18:08:46.953600
MEAN_MOTION    = 14.85551175
ECCENTRICITY   = .00184998
INCLINATION    = 82.5159
RA_OF_ASC_NODE = 175.5530
ARG_OF_PERICENTER = 164.2366
MEAN_ANOMALY   = 195.9430

EPHEMERIS_TYPE = 0
CLASSIFICATION_TYPE = U
NORAD_CAT_ID   = 18749
ELEMENT_SET_NO = 999
REV_AT_EPOCH   = 4515
BSTAR          = .67279318E-4
MEAN_MOTION_DOT = .607E-5
MEAN_MOTION_DDOT = 0

CCSDS_OMM_VERS = 2.0
CREATION_DATE  = 
ORIGINATOR     = 

OBJECT_NAME    = COSMOS 1933
OBJECT_ID      = 1988-020A
CENTER_NAME    = EARTH
REF_FRAME      = TEME
TIME_SYSTEM    = UTC
MEAN_ELEMENT_THEORY = SGP/SGP4

EPOCH          = 2026-03-30T21:11:11.279616
MEAN_MOTION    = 15.18186716
ECCENTRICITY   = .00053424
INCLINATION    = 82.5121
RA_OF_ASC_NODE = 229.9384
ARG_OF_PERICENTER = 118.3655
MEAN_ANOMALY   = 241.8118

EPHEMERIS_TYPE = 0
CLASSIFICATION_TYPE = U
NORAD_CAT_ID   = 18958
ELEMENT_SET_NO = 999
REV_AT_EPOCH   = 5344
BSTAR          = .30617219E-3
MEAN_MOTION_DOT = .6289E-4
MEAN_MOTION_DDOT = 0

